AL MUNTHER              
1 63240U 25052AG  26068.64540749  .00017933  00000+0  65015-3 0  9992
2 63240  97.4001 323.9152 0008027 130.7043 229.4895 15.28381521 54798
STARLINK-35862          
1 66628U 25271M   26068.47758524  .00017463  00000+0  60039-3 0  9990
2 66628  53.1564 140.9573 0000793  90.6009 269.5083 15.30197618 17536
